[{"OBJECT_NAME":"GAOFEN-9 05","OBJECT_ID":"2020-058A","EPOCH":"2026-03-10T00:01:50.876256","MEAN_MOTION":15.30293976,"ECCENTRICITY":0.0010522,"INCLINATION":97.2228,"RA_OF_ASC_NODE":111.963,"ARG_OF_PERICENTER":91.0204,"MEAN_ANOMALY":269.2242,"EPHEMERIS_TYPE":0,"CLASSIFICATION_TYPE":"U","NORAD_CAT_ID":46232,"ELEMENT_SET_NO":999,"REV_AT_EPOCH":30843,"BSTAR":0.00025120304,"MEAN_MOTION_DOT":7.299e-5,"MEAN_MOTION_DDOT":0},{"OBJECT_NAME":"STARLINK-32203","OBJECT_ID":"2024-136C","EPOCH":"2026-03-09T06:49:11.619264","MEAN_MOTION":15.30197337,"ECCENTRICITY":0.00012819,"INCLINATION":53.1598,"RA_OF_ASC_NODE":67.5263,"ARG_OF_PERICENTER":88.7763,"MEAN_ANOMALY":271.3385,"EPHEMERIS_TYPE":0,"CLASSIFICATION_TYPE":"U","NORAD_CAT_ID":60331,"ELEMENT_SET_NO":999,"REV_AT_EPOCH":8974,"BSTAR":-1.2804998e-5,"MEAN_MOTION_DOT":-7.38e-6,"MEAN_MOTION_DDOT":0}]
